STARLINK-37048          
1 68155U 26049P   26091.82292035  .00152962  00000+0  78344-3 0  9998
2 68155  97.2841 112.2666 0001453 109.6231 250.5194 15.80870241  3068
STARLINK-36313          
1 68156U 26049Q   26091.82367107  .00176079  00000+0  89867-3 0  9999
2 68156  97.2842 112.2651 0001465  83.6119 276.5316 15.80886285  3062
STARLINK-37064          
1 68157U 26049R   26091.82517419  .00164225  00000+0  83968-3 0  9999
2 68157  97.2841 112.2632 0001175  89.8470 270.2933 15.80878210  3062
STARLINK-37069          
1 68158U 26049S   26091.84226001  .00115835  00000+0  76561-3 0  9990
2 68158  97.2847 112.2400 0001298  90.0086 270.1328 15.75231465  3061
STARLINK-37053          
1 68159U 26049T   26091.82066198  .00232295  00000+0  11758-2 0  9994
2 68159  97.2838 112.2687 0001393 125.3232 234.8167 15.80921331  3062
STARLINK-36306          
1 68160U 26049U   26091.83837888  .00097358  00000+0  64520-3 0  9994
2 68160  97.2845 112.2455 0001503  87.7922 272.3515 15.75225149  3067
STARLINK-37057          
1 68161U 26049V   26091.82216914  .00128029  00000+0  65788-3 0  9992
2 68161  97.2842 112.2672 0001635  94.6303 265.5152 15.80865262  3065
STARLINK-37013          
1 68162U 26049W   26091.81690693  .00143269  00000+0  73441-3 0  9990
2 68162  97.2846 112.2737 0001261  95.2795 264.8618 15.80877818  3068
STARLINK-36958          
1 68163U 26049X   26091.81877149 -.00228733  00000+0 -13108-2 0  9999
2 68163  97.2837 112.2713 0001569 224.1905 135.9237 15.79324308  3064
STARLINK-37002          
1 68164U 26049Y   26091.81916235  .00200146  00000+0  10183-2 0  9996
2 68164  97.2839 112.2710 0001513  95.6241 264.5200 15.80892919  3066
STARLINK-36971          
1 68165U 26049Z   26091.83335647 -.00257517  00000+0 -17749-2 0  9992
2 68165  97.2844 112.2774 0001166  79.6570 332.0300 15.75231538  4346
STARLINK-36273          
1 68166U 26049AA  26091.83767343  .00118685  00000+0  78445-3 0  9996
2 68166  97.2845 112.2466 0001296  96.5115 263.6297 15.75223428  3064
