CCSDS_OMM_VERS = 2.0
CREATION_DATE  = 
ORIGINATOR     = 

OBJECT_NAME    = STARLINK-37048
OBJECT_ID      = 2026-049P
CENTER_NAME    = EARTH
REF_FRAME      = TEME
TIME_SYSTEM    = UTC
MEAN_ELEMENT_THEORY = SGP/SGP4

EPOCH          = 2026-04-01T19:45:00.318240
MEAN_MOTION    = 15.80870241
ECCENTRICITY   = .0001453
INCLINATION    = 97.2841
RA_OF_ASC_NODE = 112.2666
ARG_OF_PERICENTER = 109.6231
MEAN_ANOMALY   = 250.5194

EPHEMERIS_TYPE = 0
CLASSIFICATION_TYPE = U
NORAD_CAT_ID   = 68155
ELEMENT_SET_NO = 999
REV_AT_EPOCH   = 306
BSTAR          = .78344E-3
MEAN_MOTION_DOT = .152962E-2
MEAN_MOTION_DDOT = 0

CCSDS_OMM_VERS = 2.0
CREATION_DATE  = 
ORIGINATOR     = 

OBJECT_NAME    = STARLINK-36313
OBJECT_ID      = 2026-049Q
CENTER_NAME    = EARTH
REF_FRAME      = TEME
TIME_SYSTEM    = UTC
MEAN_ELEMENT_THEORY = SGP/SGP4

EPOCH          = 2026-04-01T19:46:05.180448
MEAN_MOTION    = 15.80886285
ECCENTRICITY   = .0001465
INCLINATION    = 97.2842
RA_OF_ASC_NODE = 112.2651
ARG_OF_PERICENTER = 83.6119
MEAN_ANOMALY   = 276.5316

EPHEMERIS_TYPE = 0
CLASSIFICATION_TYPE = U
NORAD_CAT_ID   = 68156
ELEMENT_SET_NO = 999
REV_AT_EPOCH   = 306
BSTAR          = .89867E-3
MEAN_MOTION_DOT = .176079E-2
MEAN_MOTION_DDOT = 0

CCSDS_OMM_VERS = 2.0
CREATION_DATE  = 
ORIGINATOR     = 

OBJECT_NAME    = STARLINK-37064
OBJECT_ID      = 2026-049R
CENTER_NAME    = EARTH
REF_FRAME      = TEME
TIME_SYSTEM    = UTC
MEAN_ELEMENT_THEORY = SGP/SGP4

EPOCH          = 2026-04-01T19:48:15.050016
MEAN_MOTION    = 15.80878210
ECCENTRICITY   = .0001175
INCLINATION    = 97.2841
RA_OF_ASC_NODE = 112.2632
ARG_OF_PERICENTER = 89.8470
MEAN_ANOMALY   = 270.2933

EPHEMERIS_TYPE = 0
CLASSIFICATION_TYPE = U
NORAD_CAT_ID   = 68157
ELEMENT_SET_NO = 999
REV_AT_EPOCH   = 306
BSTAR          = .83968E-3
MEAN_MOTION_DOT = .164225E-2
MEAN_MOTION_DDOT = 0

CCSDS_OMM_VERS = 2.0
CREATION_DATE  = 
ORIGINATOR     = 

OBJECT_NAME    = STARLINK-37069
OBJECT_ID      = 2026-049S
CENTER_NAME    = EARTH
REF_FRAME      = TEME
TIME_SYSTEM    = UTC
MEAN_ELEMENT_THEORY = SGP/SGP4

EPOCH          = 2026-04-01T20:12:51.264864
MEAN_MOTION    = 15.75231465
ECCENTRICITY   = .0001298
INCLINATION    = 97.2847
RA_OF_ASC_NODE = 112.2400
ARG_OF_PERICENTER = 90.0086
MEAN_ANOMALY   = 270.1328

EPHEMERIS_TYPE = 0
CLASSIFICATION_TYPE = U
NORAD_CAT_ID   = 68158
ELEMENT_SET_NO = 999
REV_AT_EPOCH   = 306
BSTAR          = .76561E-3
MEAN_MOTION_DOT = .115835E-2
MEAN_MOTION_DDOT = 0

CCSDS_OMM_VERS = 2.0
CREATION_DATE  = 
ORIGINATOR     = 

OBJECT_NAME    = STARLINK-37053
OBJECT_ID      = 2026-049T
CENTER_NAME    = EARTH
REF_FRAME      = TEME
TIME_SYSTEM    = UTC
MEAN_ELEMENT_THEORY = SGP/SGP4

EPOCH          = 2026-04-01T19:41:45.195072
MEAN_MOTION    = 15.80921331
ECCENTRICITY   = .0001393
INCLINATION    = 97.2838
RA_OF_ASC_NODE = 112.2687
ARG_OF_PERICENTER = 125.3232
MEAN_ANOMALY   = 234.8167

EPHEMERIS_TYPE = 0
CLASSIFICATION_TYPE = U
NORAD_CAT_ID   = 68159
ELEMENT_SET_NO = 999
REV_AT_EPOCH   = 306
BSTAR          = .11758E-2
MEAN_MOTION_DOT = .232295E-2
MEAN_MOTION_DDOT = 0

CCSDS_OMM_VERS = 2.0
CREATION_DATE  = 
ORIGINATOR     = 

OBJECT_NAME    = STARLINK-36306
OBJECT_ID      = 2026-049U
CENTER_NAME    = EARTH
REF_FRAME      = TEME
TIME_SYSTEM    = UTC
MEAN_ELEMENT_THEORY = SGP/SGP4

EPOCH          = 2026-04-01T20:07:15.935232
MEAN_MOTION    = 15.75225149
ECCENTRICITY   = .0001503
INCLINATION    = 97.2845
RA_OF_ASC_NODE = 112.2455
ARG_OF_PERICENTER = 87.7922
MEAN_ANOMALY   = 272.3515

EPHEMERIS_TYPE = 0
CLASSIFICATION_TYPE = U
NORAD_CAT_ID   = 68160
ELEMENT_SET_NO = 999
REV_AT_EPOCH   = 306
BSTAR          = .6452E-3
MEAN_MOTION_DOT = .97358E-3
MEAN_MOTION_DDOT = 0

CCSDS_OMM_VERS = 2.0
CREATION_DATE  = 
ORIGINATOR     = 

OBJECT_NAME    = STARLINK-37057
OBJECT_ID      = 2026-049V
CENTER_NAME    = EARTH
REF_FRAME      = TEME
TIME_SYSTEM    = UTC
MEAN_ELEMENT_THEORY = SGP/SGP4

EPOCH          = 2026-04-01T19:43:55.413696
MEAN_MOTION    = 15.80865262
ECCENTRICITY   = .0001635
INCLINATION    = 97.2842
RA_OF_ASC_NODE = 112.2672
ARG_OF_PERICENTER = 94.6303
MEAN_ANOMALY   = 265.5152

EPHEMERIS_TYPE = 0
CLASSIFICATION_TYPE = U
NORAD_CAT_ID   = 68161
ELEMENT_SET_NO = 999
REV_AT_EPOCH   = 306
BSTAR          = .65788E-3
MEAN_MOTION_DOT = .128029E-2
MEAN_MOTION_DDOT = 0

CCSDS_OMM_VERS = 2.0
CREATION_DATE  = 
ORIGINATOR     = 

OBJECT_NAME    = STARLINK-37013
OBJECT_ID      = 2026-049W
CENTER_NAME    = EARTH
REF_FRAME      = TEME
TIME_SYSTEM    = UTC
MEAN_ELEMENT_THEORY = SGP/SGP4

EPOCH          = 2026-04-01T19:36:20.758752
MEAN_MOTION    = 15.80877818
ECCENTRICITY   = .0001261
INCLINATION    = 97.2846
RA_OF_ASC_NODE = 112.2737
ARG_OF_PERICENTER = 95.2795
MEAN_ANOMALY   = 264.8618

EPHEMERIS_TYPE = 0
CLASSIFICATION_TYPE = U
NORAD_CAT_ID   = 68162
ELEMENT_SET_NO = 999
REV_AT_EPOCH   = 306
BSTAR          = .73441E-3
MEAN_MOTION_DOT = .143269E-2
MEAN_MOTION_DDOT = 0

CCSDS_OMM_VERS = 2.0
CREATION_DATE  = 
ORIGINATOR     = 

OBJECT_NAME    = STARLINK-36958
OBJECT_ID      = 2026-049X
CENTER_NAME    = EARTH
REF_FRAME      = TEME
TIME_SYSTEM    = UTC
MEAN_ELEMENT_THEORY = SGP/SGP4

EPOCH          = 2026-04-01T19:39:01.856736
MEAN_MOTION    = 15.79324308
ECCENTRICITY   = .0001569
INCLINATION    = 97.2837
RA_OF_ASC_NODE = 112.2713
ARG_OF_PERICENTER = 224.1905
MEAN_ANOMALY   = 135.9237

EPHEMERIS_TYPE = 0
CLASSIFICATION_TYPE = U
NORAD_CAT_ID   = 68163
ELEMENT_SET_NO = 999
REV_AT_EPOCH   = 306
BSTAR          = -.13108E-2
MEAN_MOTION_DOT = -.228733E-2
MEAN_MOTION_DDOT = 0

CCSDS_OMM_VERS = 2.0
CREATION_DATE  = 
ORIGINATOR     = 

OBJECT_NAME    = STARLINK-37002
OBJECT_ID      = 2026-049Y
CENTER_NAME    = EARTH
REF_FRAME      = TEME
TIME_SYSTEM    = UTC
MEAN_ELEMENT_THEORY = SGP/SGP4

EPOCH          = 2026-04-01T19:39:35.627040
MEAN_MOTION    = 15.80892919
ECCENTRICITY   = .0001513
INCLINATION    = 97.2839
RA_OF_ASC_NODE = 112.2710
ARG_OF_PERICENTER = 95.6241
MEAN_ANOMALY   = 264.5200

EPHEMERIS_TYPE = 0
CLASSIFICATION_TYPE = U
NORAD_CAT_ID   = 68164
ELEMENT_SET_NO = 999
REV_AT_EPOCH   = 306
BSTAR          = .10183E-2
MEAN_MOTION_DOT = .200146E-2
MEAN_MOTION_DDOT = 0

CCSDS_OMM_VERS = 2.0
CREATION_DATE  = 
ORIGINATOR     = 

OBJECT_NAME    = STARLINK-36971
OBJECT_ID      = 2026-049Z
CENTER_NAME    = EARTH
REF_FRAME      = TEME
TIME_SYSTEM    = UTC
MEAN_ELEMENT_THEORY = SGP/SGP4

EPOCH          = 2026-04-01T20:00:01.999008
MEAN_MOTION    = 15.75231538
ECCENTRICITY   = .0001166
INCLINATION    = 97.2844
RA_OF_ASC_NODE = 112.2774
ARG_OF_PERICENTER = 79.6570
MEAN_ANOMALY   = 332.0300

EPHEMERIS_TYPE = 0
CLASSIFICATION_TYPE = U
NORAD_CAT_ID   = 68165
ELEMENT_SET_NO = 999
REV_AT_EPOCH   = 434
BSTAR          = -.17749E-2
MEAN_MOTION_DOT = -.257517E-2
MEAN_MOTION_DDOT = 0

CCSDS_OMM_VERS = 2.0
CREATION_DATE  = 
ORIGINATOR     = 

OBJECT_NAME    = STARLINK-36273
OBJECT_ID      = 2026-049AA
CENTER_NAME    = EARTH
REF_FRAME      = TEME
TIME_SYSTEM    = UTC
MEAN_ELEMENT_THEORY = SGP/SGP4

EPOCH          = 2026-04-01T20:06:14.984352
MEAN_MOTION    = 15.75223428
ECCENTRICITY   = .0001296
INCLINATION    = 97.2845
RA_OF_ASC_NODE = 112.2466
ARG_OF_PERICENTER = 96.5115
MEAN_ANOMALY   = 263.6297

EPHEMERIS_TYPE = 0
CLASSIFICATION_TYPE = U
NORAD_CAT_ID   = 68166
ELEMENT_SET_NO = 999
REV_AT_EPOCH   = 306
BSTAR          = .78445E-3
MEAN_MOTION_DOT = .118685E-2
MEAN_MOTION_DDOT = 0

